{
  "type": "FeatureCollection",
  "features": [
    {
      "type": "Feature",
      "properties": {
        "norad_id": 2807,
        "name": "OPS 7218 (TRANSIT 16)",
        "group": "nnss",
        "lat": -58.10837588927492,
        "lon": 174.07021883850047,
        "alt_km": 1092.4265121736244,
        "timestamp": "2025-12-26T22:28:06.052689+00:00",
        "meta_object_name": "OPS 7218 (TRANSIT 16)",
        "meta_object_id": "1967-048A",
        "meta_epoch": "2025-12-26T18:35:31.647840",
        "meta_mean_motion": 13.50725123,
        "meta_eccentricity": 0.0022129,
        "meta_inclination": 89.6735,
        "meta_ra_of_asc_node": 353.5505,
        "meta_arg_of_pericenter": 76.737,
        "meta_mean_anomaly": 96.338,
        "meta_ephemeris_type": 0,
        "meta_classification_type": "U",
        "meta_norad_cat_id": 2807,
        "meta_element_set_no": 999,
        "meta_rev_at_epoch": 88465,
        "meta_bstar": 0.00015499,
        "meta_mean_motion_dot": 1.1e-06,
        "meta_mean_motion_ddot": 0,
        "tle_line1": "1 02807U 67048A   25360.77467185  .00000110  00000+0  15499-3 0  9995",
        "tle_line2": "2 02807  89.6735 353.5505 0022129  76.7370  96.3380 13.50725123884658"
      },
      "geometry": {
        "type": "Point",
        "coordinates": [
          174.07021883850047,
          -58.10837588927492
        ]
      }
    },
    {
      "type": "Feature",
      "properties": {
        "norad_id": 2965,
        "name": "OPS 4947 (TRANSIT 17)",
        "group": "nnss",
        "lat": 81.33997005509386,
        "lon": 28.2955430488897,
        "alt_km": 1064.7593681081653,
        "timestamp": "2025-12-26T22:28:06.052713+00:00",
        "meta_object_name": "OPS 4947 (TRANSIT 17)",
        "meta_object_id": "1967-092A",
        "meta_epoch": "2025-12-26T15:34:01.652736",
        "meta_mean_motion": 13.53457224,
        "meta_eccentricity": 0.0047243,
        "meta_inclination": 89.2485,
        "meta_ra_of_asc_node": 23.374,
        "meta_arg_of_pericenter": 193.3474,
        "meta_mean_anomaly": 288.3053,
        "meta_ephemeris_type": 0,
        "meta_classification_type": "U",
        "meta_norad_cat_id": 2965,
        "meta_element_set_no": 999,
        "meta_rev_at_epoch": 87285,
        "meta_bstar": 0.00018711,
        "meta_mean_motion_dot": 1.38e-06,
        "meta_mean_motion_ddot": 0,
        "tle_line1": "1 02965U 67092A   25360.64863024  .00000138  00000+0  18711-3 0  9997",
        "tle_line2": "2 02965  89.2485  23.3740 0047243 193.3474 288.3053 13.53457224872855"
      },
      "geometry": {
        "type": "Point",
        "coordinates": [
          28.2955430488897,
          81.33997005509386
        ]
      }
    },
    {
      "type": "Feature",
      "properties": {
        "norad_id": 3133,
        "name": "OPS 7034 (TRANSIT 18)",
        "group": "nnss",
        "lat": 45.14528930557358,
        "lon": 93.70813579701961,
        "alt_km": 1007.0819189088379,
        "timestamp": "2025-12-26T22:28:06.052727+00:00",
        "meta_object_name": "OPS 7034 (TRANSIT 18)",
        "meta_object_id": "1968-012A",
        "meta_epoch": "2025-12-26T18:31:16.182048",
        "meta_mean_motion": 13.51569067,
        "meta_eccentricity": 0.0075098,
        "meta_inclination": 90.0285,
        "meta_ra_of_asc_node": 273.679,
        "meta_arg_of_pericenter": 128.8758,
        "meta_mean_anomaly": 286.0505,
        "meta_ephemeris_type": 0,
        "meta_classification_type": "U",
        "meta_norad_cat_id": 3133,
        "meta_element_set_no": 999,
        "meta_rev_at_epoch": 57108,
        "meta_bstar": 0.0002064,
        "meta_mean_motion_dot": 1.47e-06,
        "meta_mean_motion_ddot": 0,
        "tle_line1": "1 03133U 68012A   25360.77171507  .00000147  00000+0  20640-3 0  9994",
        "tle_line2": "2 03133  90.0285 273.6790 0075098 128.8758 286.0505 13.51569067571088"
      },
      "geometry": {
        "type": "Point",
        "coordinates": [
          93.70813579701961,
          45.14528930557358
        ]
      }
    },
    {
      "type": "Feature",
      "properties": {
        "norad_id": 4507,
        "name": "NNSS 19 (TRANSIT 19)",
        "group": "nnss",
        "lat": 87.365771423619,
        "lon": 54.643388297670214,
        "alt_km": 1178.1773740756453,
        "timestamp": "2025-12-26T22:28:06.052738+00:00",
        "meta_object_name": "NNSS 19 (TRANSIT 19)",
        "meta_object_id": "1970-067A",
        "meta_epoch": "2025-12-26T14:53:26.024640",
        "meta_mean_motion": 13.51317911,
        "meta_eccentricity": 0.0170229,
        "meta_inclination": 90.0046,
        "meta_ra_of_asc_node": 234.5432,
        "meta_arg_of_pericenter": 252.7431,
        "meta_mean_anomaly": 105.5031,
        "meta_ephemeris_type": 0,
        "meta_classification_type": "U",
        "meta_norad_cat_id": 4507,
        "meta_element_set_no": 999,
        "meta_rev_at_epoch": 72409,
        "meta_bstar": 0.00012342,
        "meta_mean_motion_dot": 9.5e-07,
        "meta_mean_motion_ddot": 0,
        "tle_line1": "1 04507U 70067A   25360.62044010  .00000095  00000+0  12342-3 0  9997",
        "tle_line2": "2 04507  90.0046 234.5432 0170229 252.7431 105.5031 13.51317911724094"
      },
      "geometry": {
        "type": "Point",
        "coordinates": [
          54.643388297670214,
          87.365771423619
        ]
      }
    },
    {
      "type": "Feature",
      "properties": {
        "norad_id": 6909,
        "name": "NNSS 20 (TRANSIT 20)",
        "group": "nnss",
        "lat": 65.30966134520182,
        "lon": 74.52783142325436,
        "alt_km": 963.3448678030381,
        "timestamp": "2025-12-26T22:28:06.052750+00:00",
        "meta_object_name": "NNSS 20 (TRANSIT 20)",
        "meta_object_id": "1973-081A",
        "meta_epoch": "2025-12-26T04:24:52.750368",
        "meta_mean_motion": 13.7144138,
        "meta_eccentricity": 0.0156059,
        "meta_inclination": 89.8559,
        "meta_ra_of_asc_node": 254.8528,
        "meta_arg_of_pericenter": 38.4618,
        "meta_mean_anomaly": 322.7546,
        "meta_ephemeris_type": 0,
        "meta_classification_type": "U",
        "meta_norad_cat_id": 6909,
        "meta_element_set_no": 999,
        "meta_rev_at_epoch": 80545,
        "meta_bstar": 0.00027705,
        "meta_mean_motion_dot": 2.83e-06,
        "meta_mean_motion_ddot": 0,
        "tle_line1": "1 06909U 73081A   25360.18394387  .00000283  00000+0  27705-3 0  9998",
        "tle_line2": "2 06909  89.8559 254.8528 0156059  38.4618 322.7546 13.71441380805453"
      },
      "geometry": {
        "type": "Point",
        "coordinates": [
          74.52783142325436,
          65.30966134520182
        ]
      }
    },
    {
      "type": "Feature",
      "properties": {
        "norad_id": 10457,
        "name": "TRANSAT",
        "group": "nnss",
        "lat": -22.855247071060727,
        "lon": 77.94525006570578,
        "alt_km": 1101.220052017834,
        "timestamp": "2025-12-26T22:28:06.052761+00:00",
        "meta_object_name": "TRANSAT",
        "meta_object_id": "1977-106A",
        "meta_epoch": "2025-12-26T17:50:28.291200",
        "meta_mean_motion": 13.48945799,
        "meta_eccentricity": 0.0026631,
        "meta_inclination": 89.6474,
        "meta_ra_of_asc_node": 78.1008,
        "meta_arg_of_pericenter": 149.9348,
        "meta_mean_anomaly": 331.6501,
        "meta_ephemeris_type": 0,
        "meta_classification_type": "U",
        "meta_norad_cat_id": 10457,
        "meta_element_set_no": 999,
        "meta_rev_at_epoch": 36932,
        "meta_bstar": 0.00012372,
        "meta_mean_motion_dot": 8.8e-07,
        "meta_mean_motion_ddot": 0,
        "tle_line1": "1 10457U 77106A   25360.74338300  .00000088  00000+0  12372-3 0  9995",
        "tle_line2": "2 10457  89.6474  78.1008 0026631 149.9348 331.6501 13.48945799369328"
      },
      "geometry": {
        "type": "Point",
        "coordinates": [
          77.94525006570578,
          -22.855247071060727
        ]
      }
    },
    {
      "type": "Feature",
      "properties": {
        "norad_id": 12458,
        "name": "NOVA 1",
        "group": "nnss",
        "lat": 8.660852115324117,
        "lon": 91.2068831604255,
        "alt_km": 1168.0520301332172,
        "timestamp": "2025-12-26T22:28:06.052772+00:00",
        "meta_object_name": "NOVA 1",
        "meta_object_id": "1981-044A",
        "meta_epoch": "2025-12-26T17:32:44.124000",
        "meta_mean_motion": 13.23280052,
        "meta_eccentricity": 0.0015674,
        "meta_inclination": 89.8524,
        "meta_ra_of_asc_node": 91.1873,
        "meta_arg_of_pericenter": 69.5898,
        "meta_mean_anomaly": 42.7753,
        "meta_ephemeris_type": 0,
        "meta_classification_type": "U",
        "meta_norad_cat_id": 12458,
        "meta_element_set_no": 999,
        "meta_rev_at_epoch": 15371,
        "meta_bstar": 0.00010865,
        "meta_mean_motion_dot": 5.5e-07,
        "meta_mean_motion_ddot": 0,
        "tle_line1": "1 12458U 81044A   25360.73106625  .00000055  00000+0  10865-3 0  9995",
        "tle_line2": "2 12458  89.8524  91.1873 0015674  69.5898  42.7753 13.23280052153716"
      },
      "geometry": {
        "type": "Point",
        "coordinates": [
          91.2068831604255,
          8.660852115324117
        ]
      }
    }
  ]
}